; Xiaozhi WebUI gcodegen
G21
G90
M5
G0 X0 Y0 F3000
G0 X24.769 Y81.846 F3000
M3 S500
G1 X32.308 Y81.846 F800
M5
G0 X32.308 Y80.769 F3000
M3 S500
G1 X24.769 Y80.769 F800
M5
G0 X23.692 Y79.692 F3000
M3 S500
G1 X32.308 Y79.692 F800
M5
G0 X32.308 Y78.615 F3000
M3 S500
G1 X22.615 Y78.615 F800
M5
G0 X22.615 Y77.538 F3000
M3 S500
G1 X32.308 Y77.538 F800
M5
G0 X32.308 Y76.462 F3000
M3 S500
G1 X21.538 Y76.462 F800
M5
G0 X20.462 Y75.385 F3000
M3 S500
G1 X32.308 Y75.385 F800
M5
G0 X32.308 Y74.308 F3000
M3 S500
G1 X20.462 Y74.308 F800
M5
G0 X19.385 Y73.231 F3000
M3 S500
G1 X24.769 Y73.231 F800
M5
G0 X26.923 Y73.231 F3000
M3 S500
G1 X32.308 Y73.231 F800
M5
G0 X32.308 Y72.154 F3000
M3 S500
G1 X26.923 Y72.154 F800
M5
G0 X23.692 Y72.154 F3000
M3 S500
G1 X18.308 Y72.154 F800
M5
G0 X18.308 Y71.077 F3000
M3 S500
G1 X23.692 Y71.077 F800
M5
G0 X26.923 Y71.077 F3000
M3 S500
G1 X32.308 Y71.077 F800
M5
G0 X32.308 Y70.000 F3000
M3 S500
G1 X26.923 Y70.000 F800
M5
G0 X22.615 Y70.000 F3000
M3 S500
G1 X17.231 Y70.000 F800
M5
G0 X16.154 Y68.923 F3000
M3 S500
G1 X22.615 Y68.923 F800
M5
G0 X26.923 Y68.923 F3000
M3 S500
G1 X32.308 Y68.923 F800
M5
G0 X32.308 Y67.846 F3000
M3 S500
G1 X26.923 Y67.846 F800
M5
G0 X21.538 Y67.846 F3000
M3 S500
G1 X16.154 Y67.846 F800
M5
G0 X15.077 Y66.769 F3000
M3 S500
G1 X21.538 Y66.769 F800
M5
G0 X26.923 Y66.769 F3000
M3 S500
G1 X32.308 Y66.769 F800
M5
G0 X32.308 Y65.692 F3000
M3 S500
G1 X26.923 Y65.692 F800
M5
G0 X20.462 Y65.692 F3000
M3 S500
G1 X15.077 Y65.692 F800
M5
G0 X14.000 Y64.615 F3000
M3 S500
G1 X19.385 Y64.615 F800
M5
G0 X26.923 Y64.615 F3000
M3 S500
G1 X32.308 Y64.615 F800
M5
G0 X32.308 Y63.538 F3000
M3 S500
G1 X26.923 Y63.538 F800
M5
G0 X19.385 Y63.538 F3000
M3 S500
G1 X12.923 Y63.538 F800
M5
G0 X12.923 Y62.462 F3000
M3 S500
G1 X18.308 Y62.462 F800
M5
G0 X26.923 Y62.462 F3000
M3 S500
G1 X32.308 Y62.462 F800
M5
G0 X32.308 Y61.385 F3000
M3 S500
G1 X26.923 Y61.385 F800
M5
G0 X17.231 Y61.385 F3000
M3 S500
G1 X11.846 Y61.385 F800
M5
G0 X10.769 Y60.308 F3000
M3 S500
G1 X17.231 Y60.308 F800
M5
G0 X26.923 Y60.308 F3000
M3 S500
G1 X32.308 Y60.308 F800
M5
G0 X32.308 Y59.231 F3000
M3 S500
G1 X26.923 Y59.231 F800
M5
G0 X16.154 Y59.231 F3000
M3 S500
G1 X10.769 Y59.231 F800
M5
G0 X9.692 Y58.154 F3000
M3 S500
G1 X15.077 Y58.154 F800
M5
G0 X26.923 Y58.154 F3000
M3 S500
G1 X32.308 Y58.154 F800
M5
G0 X32.308 Y57.077 F3000
M3 S500
G1 X26.923 Y57.077 F800
M5
G0 X15.077 Y57.077 F3000
M3 S500
G1 X8.615 Y57.077 F800
M5
G0 X8.615 Y56.000 F3000
M3 S500
G1 X14.000 Y56.000 F800
M5
G0 X26.923 Y56.000 F3000
M3 S500
G1 X32.308 Y56.000 F800
M5
G0 X32.308 Y54.923 F3000
M3 S500
G1 X26.923 Y54.923 F800
M5
G0 X12.923 Y54.923 F3000
M3 S500
G1 X7.538 Y54.923 F800
M5
G0 X6.462 Y53.846 F3000
M3 S500
G1 X12.923 Y53.846 F800
M5
G0 X26.923 Y53.846 F3000
M3 S500
G1 X32.308 Y53.846 F800
M5
G0 X32.308 Y52.769 F3000
M3 S500
G1 X26.923 Y52.769 F800
M5
G0 X11.846 Y52.769 F3000
M3 S500
G1 X6.462 Y52.769 F800
M5
G0 X5.385 Y51.692 F3000
M3 S500
G1 X10.769 Y51.692 F800
M5
G0 X26.923 Y51.692 F3000
M3 S500
G1 X32.308 Y51.692 F800
M5
G0 X32.308 Y50.615 F3000
M3 S500
G1 X26.923 Y50.615 F800
M5
G0 X10.769 Y50.615 F3000
M3 S500
G1 X4.308 Y50.615 F800
M5
G0 X4.308 Y49.538 F3000
M3 S500
G1 X9.692 Y49.538 F800
M5
G0 X26.923 Y49.538 F3000
M3 S500
G1 X32.308 Y49.538 F800
M5
G0 X32.308 Y48.462 F3000
M3 S500
G1 X26.923 Y48.462 F800
M5
G0 X8.615 Y48.462 F3000
M3 S500
G1 X3.231 Y48.462 F800
M5
G0 X3.231 Y47.385 F3000
M3 S500
G1 X8.615 Y47.385 F800
M5
G0 X26.923 Y47.385 F3000
M3 S500
G1 X32.308 Y47.385 F800
M5
G0 X39.846 Y46.308 F3000
M3 S500
G1 X2.154 Y46.308 F800
M5
G0 X2.154 Y45.231 F3000
M3 S500
G1 X39.846 Y45.231 F800
M5
G0 X39.846 Y44.154 F3000
M3 S500
G1 X2.154 Y44.154 F800
M5
G0 X2.154 Y43.077 F3000
M3 S500
G1 X39.846 Y43.077 F800
M5
G0 X39.846 Y42.000 F3000
M3 S500
G1 X2.154 Y42.000 F800
M5
G0 X25.846 Y40.923 F3000
M3 S500
G1 X32.308 Y40.923 F800
M5
G0 X32.308 Y39.846 F3000
M3 S500
G1 X26.923 Y39.846 F800
M5
G0 X26.923 Y38.769 F3000
M3 S500
G1 X32.308 Y38.769 F800
M5
G0 X32.308 Y37.692 F3000
M3 S500
G1 X26.923 Y37.692 F800
M5
G0 X26.923 Y36.615 F3000
M3 S500
G1 X32.308 Y36.615 F800
M5
G0 X32.308 Y35.538 F3000
M3 S500
G1 X26.923 Y35.538 F800
M5
G0 X26.923 Y34.462 F3000
M3 S500
G1 X32.308 Y34.462 F800
M5
G0 X32.308 Y33.385 F3000
M3 S500
G1 X26.923 Y33.385 F800
M5
G0 X26.923 Y32.308 F3000
M3 S500
G1 X32.308 Y32.308 F800
M5
G0 X32.308 Y31.231 F3000
M3 S500
G1 X26.923 Y31.231 F800
M5
G0 X26.923 Y30.154 F3000
M3 S500
G1 X32.308 Y30.154 F800
M5
G0 X32.308 Y29.077 F3000
M3 S500
G1 X26.923 Y29.077 F800
M5
G0 X26.923 Y28.000 F3000
M3 S500
G1 X32.308 Y28.000 F800
M5
G0 X32.308 Y26.923 F3000
M3 S500
G1 X26.923 Y26.923 F800
M5
G0 X26.923 Y25.846 F3000
M3 S500
G1 X32.308 Y25.846 F800
M5
G0 X0 Y0 F3000
M5
